GLOBALSTAR M001         
1 25162U 98008A   25084.82975304 -.00000078  00000+0  14380-3 0  9992
2 25162  52.0023 215.8424 0002179  89.7602  70.9053 12.38210768233388
GLOBALSTAR M004         
1 25163U 98008B   25085.10770468 -.00000027  00000+0  42290-3 0  9994
2 25163  52.0009 307.6090 0003861 101.9997  65.5147 12.63391914251289
GLOBALSTAR M002         
1 25164U 98008C   25085.20595075 -.00000042  00000+0  68719-3 0  9996
2 25164  51.9997  88.2626 0001293 357.6735   2.4078 11.61508190174491
GLOBALSTAR M003         
1 25165U 98008D   25084.90167529 -.00000063  00000+0  28722-3 0  9995
2 25165  52.0019  39.1820 0008273 123.4467 251.4863 12.12075417223127
GLOBALSTAR M014         
1 25306U 98023A   25085.21092111 -.00000072  00000+0  11041-3 0  9994
2 25306  51.9877  13.2213 0000682 176.6924 332.7107 11.65478864181483
GLOBALSTAR M006         
1 25307U 98023B   25085.17839225 -.00000057  00000+0  38786-3 0  9993
2 25307  51.9941  62.6712 0003294 316.5191  57.7247 11.58173197207325
GLOBALSTAR M015         
1 25308U 98023C   25085.21323479 -.00000090  00000+0 -37971-3 0  9991
2 25308  51.9807 157.2570 0012162 286.9606 104.4017 11.48858412184918
GLOBALSTAR M008         
1 25309U 98023D   25085.19193844 -.00000040  00000+0  44457-3 0  9991
2 25309  51.9960  78.6762 0002636   6.1921  76.3159 12.36065209227896
